satname,norad_id,inclination_deg,eccentricity,mean_motion_rev_per_day,perigee_km,apogee_km,l1,l2
STARLINK-1422,45696,53.155,0.0001913,15.40294369,443.9345139460247,446.54513791962654,1 45696U 20035AR  26200.59787995  .00027872  00000+0  68882-3 0  9999,2 45696  53.1550 153.4991 0001913  94.9276 265.1948 15.40294369339210
STARLINK-1351,45697,53.0406,8.37e-05,15.7036854,357.27911808339377,358.40672112193533,1 45697U 20035AS  26200.71593991  .00034565  00000+0  28117-3 0  9999,2 45697  53.0406  95.7846 0000837  32.7367 327.3701 15.70368540340016
STARLINK-1400,45700,53.0415,0.0001432,15.7531221,342.78032512049504,344.7054715233744,1 45700U 20035AV  26200.84606823  .00047974  00000+0  31431-3 0  9998,2 45700  53.0415  96.8402 0001432 153.6981 206.4111 15.75312210340007
STARLINK-1403,45701,53.1516,0.0004673,15.37246424,451.0633479162152,457.4489025310486,1 45701U 20035AW  26200.80376374  .00026868  00000+0  73356-3 0  9991,2 45701  53.1516 140.7587 0004673  46.3832 313.7559 15.37246424339408
STARLINK-1407,45703,53.0274,0.0004076,15.81433234,323.6539897087332,329.11951747265994,1 45703U 20035AY  26200.78729330  .00074910  00000+0  36990-3 0  9998,2 45703  53.0274  21.5963 0004076 194.7040 165.3863 15.81433234341059
STARLINK-1423,45710,53.0405,0.0003056,15.73694027,346.2944346649647,350.405663549378,1 45710U 20035BF  26199.94430841  .00045040  00000+0  31675-3 0  9994,2 45710  53.0405  97.6789 0003056 192.6448 167.4494 15.73694027339903
STARLINK-1433,45711,53.0409,0.0001262,15.7972629,330.3687966474772,332.0622372227517,1 45711U 20035BG  26200.85006494  .00062532  00000+0  33511-3 0  9997,2 45711  53.0409  90.6682 0001262 195.0644 165.0339 15.79726290340082
STARLINK-1434,45712,53.0486,0.000302,15.37667574,450.9455181335852,455.0715300301308,1 45712U 20035BH  26200.11678988  .00026216  00000+0  70646-3 0  9999,2 45712  53.0486 125.9495 0003020  99.2621 260.8723 15.37667574339549
STARLINK-1465,45731,53.0427,0.0002804,15.72957755,348.56221811746036,352.33560909781136,1 45731U 20038B   26200.53881935  .00042343  00000+0  30766-3 0  9995,2 45731  53.0427 299.2015 0002804 332.3155  27.7713 15.72957755336986
STARLINK-1471,45735,53.0423,0.0002788,15.56246246,396.6430283978998,400.42169923516394,1 45735U 20038F   26200.30520418  .00038884  00000+0  54821-3 0  9993,2 45735  53.0423 228.1464 0002788   1.3599 358.7418 15.56246246337978
STARLINK-1480,45741,53.0459,0.0001512,15.69431576,359.5047256340695,361.5424966028713,1 45741U 20038M   26200.67239586  .00035180  00000+0  29736-3 0  9996,2 45741  53.0459 293.2414 0001512 131.4711 228.6435 15.69431576337090
STARLINK-1500,45744,53.0344,0.0002644,15.41144334,440.92735906714825,444.5342339579447,1 45744U 20038Q   26200.45453779  .00014555  00000+0  35495-3 0  9999,2 45744  53.0344 291.5423 0002644 344.1053  15.9868 15.41144334337096
STARLINK-1504,45746,53.0175,0.0002352,15.61807811,380.8449953894369,384.0251684967843,1 45746U 20038S   26200.48485144  .00021938  00000+0  25386-3 0  9996,2 45746  53.0175 222.1342 0002352   4.7223 355.3811 15.61807811338058
STARLINK-1506,45747,53.0745,0.0002386,15.29342014,476.1422372273273,479.4138798932727,1 45747U 20038T   26200.46823592  .00004888  00000+0  18169-3 0  9994,2 45747  53.0745 311.2334 0002386 331.9636  28.1234 15.29342014336834
STARLINK-1464,45751,53.0438,0.0001791,15.56340905,397.0439305969803,399.4712351365624,1 45751U 20038X   26200.57419782  .00024782  00000+0  35128-3 0  9992,2 45751  53.0438 290.4967 0001791 132.6434 227.4727 15.56340905337120
STARLINK-1477,45754,53.0503,9.3e-05,15.20984443,502.2299660292156,503.5098333125543,1 45754U 20038AA  26200.33592353  .00015721  00000+0  71338-3 0  9991,2 45754  53.0503 331.4995 0000930  23.0775 337.0262 15.20984443336525
STARLINK-1478,45755,53.0439,0.0003855,15.75708111,340.02607331272156,345.207774588087,1 45755U 20038AB  26200.45263348  .00048282  00000+0  31079-3 0  9990,2 45755  53.0439 270.5908 0003855  15.9148 344.1991 15.75708111337372
STARLINK-1493,45759,53.044,0.0002264,15.69282429,359.4248433300054,362.47630218295035,1 45759U 20038AF  26200.87065259  .00035811  00000+0  30443-3 0  9999,2 45759  53.0440 279.8388 0002264 114.5122 245.6130 15.69282429337285
STARLINK-1502,45764,53.0428,0.0003493,15.68452618,360.9725064820341,365.6820934419884,1 45764U 20038AL  26200.44905800  .00035487  00000+0  31212-3 0  9997,2 45764  53.0428 286.1327 0003493  13.0786 347.0320 15.68452618337179
STARLINK-1470,45772,53.0407,0.0001419,15.38404506,449.8578001549231,451.7958600899128,1 45772U 20038AU  26200.59233664  .00021583  00000+0  57009-3 0  9998,2 45772  53.0407 276.9762 0001419  33.8542 326.2551 15.38404506337312
STARLINK-1482,45773,53.1554,0.0001144,15.41313576,441.45123267639246,443.01173298526373,1 45773U 20038AV  26200.52919083  .00026710  00000+0  63878-3 0  9996,2 45773  53.1554 293.4113 0001144  51.1231 308.9876 15.41313576337108
STARLINK-1496,45780,53.0423,0.00064,15.73884105,343.50386116588015,352.113071362699,1 45780U 20038BC  26200.84966936  .00045389  00000+0  31631-3 0  9993,2 45780  53.0423 253.0064 0006400  14.6132 345.5070 15.73884105337650
STARLINK-1513,45786,53.1597,0.0001684,15.31805026,469.2736379061207,471.5802342397892,1 45786U 20038BJ  26200.46696176  .00015600  00000+0  51175-3 0  9991,2 45786  53.1597 298.0373 0001684  63.0919 297.0255 15.31805026337038
STARLINK-1522,46027,53.0605,0.000161,15.14734984,520.6723560806795,522.8941303990032,1 46027U 20055A   26200.41581256  .00009916  00000+0  54433-3 0  9999,2 46027  53.0605 250.0707 0001610  60.1728 299.9425 15.14734984328811
STARLINK-1523,46028,53.1592,0.0004924,15.33233258,462.803103835392,469.5433805619077,1 46028U 20055B   26200.34536093  .00017455  00000+0  54608-3 0  9992,2 46028  53.1592 234.6728 0004924  20.9093 339.2110 15.33233258329065
STARLINK-1526,46029,53.1597,0.0001242,15.3168968,469.92012443772455,471.62139312500585,1 46029U 20055C   26200.48440884 -.00000946  00000+0 -18718-4 0  9992,2 46029  53.1597 234.1809 0001242  89.4834 270.6310 15.31689680329072
STARLINK-1555,46032,53.16,0.0001177,15.31696443,469.9444844077343,471.5567125484167,1 46032U 20055F   26200.47042453  .00000530  00000+0  28851-4 0  9991,2 46032  53.1600 234.2564 0001177  64.5625 295.5498 15.31696443329077
STARLINK-1556,46033,53.159,0.0001057,15.31701786,470.0107455221041,471.4585969934087,1 46033U 20055G   26200.38652737 -.00000364  00000+0  26330-7 0  9993,2 46033  53.1590 234.6396 0001057  69.0130 291.0984 15.31701786329035
STARLINK-1557,46034,53.158,4.97e-05,15.31707538,470.3771368621565,471.05791300193505,1 46034U 20055H   26200.78736260 -.00000863  00000+0 -16066-4 0  9999,2 46034  53.1580 232.8343 0000497  32.9326 327.1706 15.31707538329090
STARLINK-1558,46035,53.1584,0.0001202,15.31691544,469.9419641928898,471.5884402823076,1 46035U 20055J   26200.34460419 -.00000128  00000+0  76568-5 0  9999,2 46035  53.1584 234.9683 0001202  86.1867 273.9272 15.31691544329052
STARLINK-1560,46036,53.1588,0.0001183,15.3170276,469.92154664638747,471.54198899685343,1 46036U 20055K   26200.78270226  .00000352  00000+0  23117-4 0  9992,2 46036  53.1588 232.8833 0001183  83.9040 276.2096 15.31702760329128
STARLINK-1569,46039,53.1607,0.0001258,15.31700103,469.87809950065,471.60127687539807,1 46039U 20055N   26200.79201366 -.00000145  00000+0  70939-5 0  9991,2 46039  53.1607 232.7478 0001258  86.4497 273.6648 15.31700103329116
STARLINK-1582,46043,53.1588,0.0001265,15.31696856,469.8829832166093,471.61575146754694,1 46043U 20055S   26200.80057244 -.00000134  00000+0  74419-5 0  9997,2 46043  53.1588 232.0140 0001265  90.6666 269.4480 15.31696856329128
STARLINK-1591,46045,53.1594,0.0001156,15.31700216,469.9476212347481,471.5310814471786,1 46045U 20055U   26200.82463780  .00000129  00000+0  15931-4 0  9993,2 46045  53.1594 232.5983 0001156  70.1939 289.9186 15.31700216329106
STARLINK-1524,46047,53.1578,0.0001209,15.31694688,469.9277989238417,471.58386121015246,1 46047U 20055W   26200.76989887 -.00000210  00000+0  49930-5 0  9998,2 46047  53.1578 219.4552 0001209  91.4018 268.7122 15.31694688329301
STARLINK-1527,46048,53.1569,0.0001091,15.31709827,469.9634923223739,471.4579108908647,1 46048U 20055X   26200.76524344  .00001018  00000+0  44547-4 0  9996,2 46048  53.1569 219.4581 0001091  98.5145 261.5980 15.31709827329273
STARLINK-1540,46051,53.1593,0.0001013,15.31700117,470.0458552504724,471.433437659045,1 46051U 20055AA  26200.75128238  .00000099  00000+0  14961-4 0  9996,2 46051  53.1593 219.7343 0001013  80.7050 279.4066 15.31700117329316
STARLINK-1541,46052,53.1446,0.0006068,16.13560667,233.07929016239086,241.10753379036487,1 46052U 20055AB  26200.47763513  .00819484  40994-3  66810-3 0  9992,2 46052  53.1446 185.4995 0006068  37.9351 322.2112 16.13560667329728
STARLINK-1543,46053,53.1595,0.0001071,15.31696711,470.01628380481,471.48331535727993,1 46053U 20055AC  26200.33178446 -.00000084  00000+0  90638-5 0  9999,2 46053  53.1595 221.4941 0001071  85.4645 274.6478 15.31696711329240
STARLINK-1548,46054,53.1586,0.0001007,15.31706429,470.03115079465897,471.4105107617779,1 46054U 20055AD  26200.34578654  .00000051  00000+0  13418-4 0  9999,2 46054  53.1586 221.5026 0001007  71.3669 288.7442 15.31706429329240
STARLINK-1554,46055,53.1578,0.0001206,15.31709246,469.8864622777328,471.5384047610987,1 46055U 20055AE  26200.78386808  .00000995  00000+0  43806-4 0  9997,2 46055  53.1578 219.4075 0001206  87.6396 272.4744 15.31709246329313
STARLINK-1564,46058,53.1594,8.8e-05,15.30189783,474.6424780427751,475.84867337610103,1 46058U 20055AH  26200.48817458  .00000760  00000+0  37789-4 0  9990,2 46058  53.1594 222.1793 0000880  64.0392 296.0699 15.30189783329244
STARLINK-1570,46059,53.1585,0.0001139,15.31703029,469.95087988782325,471.5110520104654,1 46059U 20055AJ  26200.74657881  .00000101  00000+0  15030-4 0  9996,2 46059  53.1585 219.4615 0001139  73.0606 287.0520 15.31703029329264
